STARLINK-35519          
1 65919U 25225K   25302.50003471 -.02036575  00000+0 -22734-1 0  9996
2 65919  53.1603  58.0632 0001245  83.5461 144.3325 15.65493538  4312
STARLINK-33902          
1 65920U 25225L   25302.50003471 -.02038707  00000+0 -22760-1 0  9996
2 65920  53.1605  58.0583 0001153  79.6223 150.1711 15.65495980  4307
STARLINK-35530          
1 65921U 25225M   25302.50003471 -.02036157  00000+0 -22728-1 0  9998
2 65921  53.1601  58.0550 0001142  78.8706 152.8382 15.65495127  4264
STARLINK-35544          
1 65922U 25225N   25302.50003471 -.02034745  00000+0 -22712-1 0  9993
2 65922  53.1603  58.0505 0001167  76.5605 157.0676 15.65492556  4319
STARLINK-35484          
1 65923U 25225P   25302.50003471 -.02050801  00000+0 -22908-1 0  9992
2 65923  53.1603  58.0474 0001142  75.1903 160.3517 15.65502835  4317
STARLINK-34994          
1 65924U 25225Q   25302.50003471 -.02040630  00000+0 -22784-1 0  9994
2 65924  53.1598  58.0427 0001094  79.1527 158.3078 15.65496806  4310
STARLINK-35458          
1 65925U 25225R   25302.50003471 -.02046749  00000+0 -22857-1 0  9993
2 65925  53.1598  58.0344 0001211  85.2711 156.0212 15.65501713  4312
STARLINK-35492          
1 65926U 25225S   25302.50003471 -.02044871  00000+0 -22835-1 0  9994
2 65926  53.1599  58.0382 0001163  83.0419 156.3350 15.65499828  4312
STARLINK-35494          
1 65927U 25225T   25302.50003471 -.02038705  00000+0 -22761-1 0  9992
2 65927  53.1599  58.0293 0001120  77.5355 165.6754 15.65495606  4315
STARLINK-35493          
1 65928U 25225U   25302.50003471 -.02037121  00000+0 -22741-1 0  9992
2 65928  53.1602  58.0214 0001131  85.8776 161.1682 15.65494727  4263
STARLINK-35175          
1 65929U 25225V   25302.50003471 -.02043080  00000+0 -22812-1 0  9993
2 65929  53.1600  58.0179 0001127  84.2851 164.6743 15.65499877  4317
STARLINK-35513          
1 65930U 25225W   25302.50003471 -.02035210  00000+0 -22719-1 0  9997
2 65930  53.1602  58.0252 0001114  76.2871 168.8423 15.65492632  4315
