CCSDS_OMM_VERS = 2.0
CREATION_DATE  = 
ORIGINATOR     = 

OBJECT_NAME    = STARLINK-35519
OBJECT_ID      = 2025-225K
CENTER_NAME    = EARTH
REF_FRAME      = TEME
TIME_SYSTEM    = UTC
MEAN_ELEMENT_THEORY = SGP/SGP4

EPOCH          = 2025-10-29T12:00:02.998944
MEAN_MOTION    = 15.65493538
ECCENTRICITY   = .0001245
INCLINATION    = 53.1603
RA_OF_ASC_NODE = 58.0632
ARG_OF_PERICENTER = 83.5461
MEAN_ANOMALY   = 144.3325

EPHEMERIS_TYPE = 0
CLASSIFICATION_TYPE = U
NORAD_CAT_ID   = 65919
ELEMENT_SET_NO = 999
REV_AT_EPOCH   = 431
BSTAR          = -.22734E-1
MEAN_MOTION_DOT = -.2036575E-1
MEAN_MOTION_DDOT = 0

CCSDS_OMM_VERS = 2.0
CREATION_DATE  = 
ORIGINATOR     = 

OBJECT_NAME    = STARLINK-33902
OBJECT_ID      = 2025-225L
CENTER_NAME    = EARTH
REF_FRAME      = TEME
TIME_SYSTEM    = UTC
MEAN_ELEMENT_THEORY = SGP/SGP4

EPOCH          = 2025-10-29T12:00:02.998944
MEAN_MOTION    = 15.65495980
ECCENTRICITY   = .0001153
INCLINATION    = 53.1605
RA_OF_ASC_NODE = 58.0583
ARG_OF_PERICENTER = 79.6223
MEAN_ANOMALY   = 150.1711

EPHEMERIS_TYPE = 0
CLASSIFICATION_TYPE = U
NORAD_CAT_ID   = 65920
ELEMENT_SET_NO = 999
REV_AT_EPOCH   = 430
BSTAR          = -.2276E-1
MEAN_MOTION_DOT = -.2038707E-1
MEAN_MOTION_DDOT = 0

CCSDS_OMM_VERS = 2.0
CREATION_DATE  = 
ORIGINATOR     = 

OBJECT_NAME    = STARLINK-35530
OBJECT_ID      = 2025-225M
CENTER_NAME    = EARTH
REF_FRAME      = TEME
TIME_SYSTEM    = UTC
MEAN_ELEMENT_THEORY = SGP/SGP4

EPOCH          = 2025-10-29T12:00:02.998944
MEAN_MOTION    = 15.65495127
ECCENTRICITY   = .0001142
INCLINATION    = 53.1601
RA_OF_ASC_NODE = 58.0550
ARG_OF_PERICENTER = 78.8706
MEAN_ANOMALY   = 152.8382

EPHEMERIS_TYPE = 0
CLASSIFICATION_TYPE = U
NORAD_CAT_ID   = 65921
ELEMENT_SET_NO = 999
REV_AT_EPOCH   = 426
BSTAR          = -.22728E-1
MEAN_MOTION_DOT = -.2036157E-1
MEAN_MOTION_DDOT = 0

CCSDS_OMM_VERS = 2.0
CREATION_DATE  = 
ORIGINATOR     = 

OBJECT_NAME    = STARLINK-35544
OBJECT_ID      = 2025-225N
CENTER_NAME    = EARTH
REF_FRAME      = TEME
TIME_SYSTEM    = UTC
MEAN_ELEMENT_THEORY = SGP/SGP4

EPOCH          = 2025-10-29T12:00:02.998944
MEAN_MOTION    = 15.65492556
ECCENTRICITY   = .0001167
INCLINATION    = 53.1603
RA_OF_ASC_NODE = 58.0505
ARG_OF_PERICENTER = 76.5605
MEAN_ANOMALY   = 157.0676

EPHEMERIS_TYPE = 0
CLASSIFICATION_TYPE = U
NORAD_CAT_ID   = 65922
ELEMENT_SET_NO = 999
REV_AT_EPOCH   = 431
BSTAR          = -.22712E-1
MEAN_MOTION_DOT = -.2034745E-1
MEAN_MOTION_DDOT = 0

CCSDS_OMM_VERS = 2.0
CREATION_DATE  = 
ORIGINATOR     = 

OBJECT_NAME    = STARLINK-35484
OBJECT_ID      = 2025-225P
CENTER_NAME    = EARTH
REF_FRAME      = TEME
TIME_SYSTEM    = UTC
MEAN_ELEMENT_THEORY = SGP/SGP4

EPOCH          = 2025-10-29T12:00:02.998944
MEAN_MOTION    = 15.65502835
ECCENTRICITY   = .0001142
INCLINATION    = 53.1603
RA_OF_ASC_NODE = 58.0474
ARG_OF_PERICENTER = 75.1903
MEAN_ANOMALY   = 160.3517

EPHEMERIS_TYPE = 0
CLASSIFICATION_TYPE = U
NORAD_CAT_ID   = 65923
ELEMENT_SET_NO = 999
REV_AT_EPOCH   = 431
BSTAR          = -.22908E-1
MEAN_MOTION_DOT = -.2050801E-1
MEAN_MOTION_DDOT = 0

CCSDS_OMM_VERS = 2.0
CREATION_DATE  = 
ORIGINATOR     = 

OBJECT_NAME    = STARLINK-34994
OBJECT_ID      = 2025-225Q
CENTER_NAME    = EARTH
REF_FRAME      = TEME
TIME_SYSTEM    = UTC
MEAN_ELEMENT_THEORY = SGP/SGP4

EPOCH          = 2025-10-29T12:00:02.998944
MEAN_MOTION    = 15.65496806
ECCENTRICITY   = .0001094
INCLINATION    = 53.1598
RA_OF_ASC_NODE = 58.0427
ARG_OF_PERICENTER = 79.1527
MEAN_ANOMALY   = 158.3078

EPHEMERIS_TYPE = 0
CLASSIFICATION_TYPE = U
NORAD_CAT_ID   = 65924
ELEMENT_SET_NO = 999
REV_AT_EPOCH   = 431
BSTAR          = -.22784E-1
MEAN_MOTION_DOT = -.204063E-1
MEAN_MOTION_DDOT = 0

CCSDS_OMM_VERS = 2.0
CREATION_DATE  = 
ORIGINATOR     = 

OBJECT_NAME    = STARLINK-35458
OBJECT_ID      = 2025-225R
CENTER_NAME    = EARTH
REF_FRAME      = TEME
TIME_SYSTEM    = UTC
MEAN_ELEMENT_THEORY = SGP/SGP4

EPOCH          = 2025-10-29T12:00:02.998944
MEAN_MOTION    = 15.65501713
ECCENTRICITY   = .0001211
INCLINATION    = 53.1598
RA_OF_ASC_NODE = 58.0344
ARG_OF_PERICENTER = 85.2711
MEAN_ANOMALY   = 156.0212

EPHEMERIS_TYPE = 0
CLASSIFICATION_TYPE = U
NORAD_CAT_ID   = 65925
ELEMENT_SET_NO = 999
REV_AT_EPOCH   = 431
BSTAR          = -.22857E-1
MEAN_MOTION_DOT = -.2046749E-1
MEAN_MOTION_DDOT = 0

CCSDS_OMM_VERS = 2.0
CREATION_DATE  = 
ORIGINATOR     = 

OBJECT_NAME    = STARLINK-35492
OBJECT_ID      = 2025-225S
CENTER_NAME    = EARTH
REF_FRAME      = TEME
TIME_SYSTEM    = UTC
MEAN_ELEMENT_THEORY = SGP/SGP4

EPOCH          = 2025-10-29T12:00:02.998944
MEAN_MOTION    = 15.65499828
ECCENTRICITY   = .0001163
INCLINATION    = 53.1599
RA_OF_ASC_NODE = 58.0382
ARG_OF_PERICENTER = 83.0419
MEAN_ANOMALY   = 156.3350

EPHEMERIS_TYPE = 0
CLASSIFICATION_TYPE = U
NORAD_CAT_ID   = 65926
ELEMENT_SET_NO = 999
REV_AT_EPOCH   = 431
BSTAR          = -.22835E-1
MEAN_MOTION_DOT = -.2044871E-1
MEAN_MOTION_DDOT = 0

CCSDS_OMM_VERS = 2.0
CREATION_DATE  = 
ORIGINATOR     = 

OBJECT_NAME    = STARLINK-35494
OBJECT_ID      = 2025-225T
CENTER_NAME    = EARTH
REF_FRAME      = TEME
TIME_SYSTEM    = UTC
MEAN_ELEMENT_THEORY = SGP/SGP4

EPOCH          = 2025-10-29T12:00:02.998944
MEAN_MOTION    = 15.65495606
ECCENTRICITY   = .000112
INCLINATION    = 53.1599
RA_OF_ASC_NODE = 58.0293
ARG_OF_PERICENTER = 77.5355
MEAN_ANOMALY   = 165.6754

EPHEMERIS_TYPE = 0
CLASSIFICATION_TYPE = U
NORAD_CAT_ID   = 65927
ELEMENT_SET_NO = 999
REV_AT_EPOCH   = 431
BSTAR          = -.22761E-1
MEAN_MOTION_DOT = -.2038705E-1
MEAN_MOTION_DDOT = 0

CCSDS_OMM_VERS = 2.0
CREATION_DATE  = 
ORIGINATOR     = 

OBJECT_NAME    = STARLINK-35493
OBJECT_ID      = 2025-225U
CENTER_NAME    = EARTH
REF_FRAME      = TEME
TIME_SYSTEM    = UTC
MEAN_ELEMENT_THEORY = SGP/SGP4

EPOCH          = 2025-10-29T12:00:02.998944
MEAN_MOTION    = 15.65494727
ECCENTRICITY   = .0001131
INCLINATION    = 53.1602
RA_OF_ASC_NODE = 58.0214
ARG_OF_PERICENTER = 85.8776
MEAN_ANOMALY   = 161.1682

EPHEMERIS_TYPE = 0
CLASSIFICATION_TYPE = U
NORAD_CAT_ID   = 65928
ELEMENT_SET_NO = 999
REV_AT_EPOCH   = 426
BSTAR          = -.22741E-1
MEAN_MOTION_DOT = -.2037121E-1
MEAN_MOTION_DDOT = 0

CCSDS_OMM_VERS = 2.0
CREATION_DATE  = 
ORIGINATOR     = 

OBJECT_NAME    = STARLINK-35175
OBJECT_ID      = 2025-225V
CENTER_NAME    = EARTH
REF_FRAME      = TEME
TIME_SYSTEM    = UTC
MEAN_ELEMENT_THEORY = SGP/SGP4

EPOCH          = 2025-10-29T12:00:02.998944
MEAN_MOTION    = 15.65499877
ECCENTRICITY   = .0001127
INCLINATION    = 53.1600
RA_OF_ASC_NODE = 58.0179
ARG_OF_PERICENTER = 84.2851
MEAN_ANOMALY   = 164.6743

EPHEMERIS_TYPE = 0
CLASSIFICATION_TYPE = U
NORAD_CAT_ID   = 65929
ELEMENT_SET_NO = 999
REV_AT_EPOCH   = 431
BSTAR          = -.22812E-1
MEAN_MOTION_DOT = -.204308E-1
MEAN_MOTION_DDOT = 0

CCSDS_OMM_VERS = 2.0
CREATION_DATE  = 
ORIGINATOR     = 

OBJECT_NAME    = STARLINK-35513
OBJECT_ID      = 2025-225W
CENTER_NAME    = EARTH
REF_FRAME      = TEME
TIME_SYSTEM    = UTC
MEAN_ELEMENT_THEORY = SGP/SGP4

EPOCH          = 2025-10-29T12:00:02.998944
MEAN_MOTION    = 15.65492632
ECCENTRICITY   = .0001114
INCLINATION    = 53.1602
RA_OF_ASC_NODE = 58.0252
ARG_OF_PERICENTER = 76.2871
MEAN_ANOMALY   = 168.8423

EPHEMERIS_TYPE = 0
CLASSIFICATION_TYPE = U
NORAD_CAT_ID   = 65930
ELEMENT_SET_NO = 999
REV_AT_EPOCH   = 431
BSTAR          = -.22719E-1
MEAN_MOTION_DOT = -.203521E-1
MEAN_MOTION_DDOT = 0

